ONEWEB-0716             
1 55177U 23004AP  25340.92664994  .00000202  00000+0  48643-3 0  9998
2 55177  87.9113  44.1027 0001944  98.6669 261.4683 13.17648795142262
ONEWEB-0717             
1 55178U 23004AQ  25340.90977322  .00000117  00000+0  26892-3 0  9996
2 55178  87.9126  44.0761 0001236 122.3468 237.7783 13.17648914142313
ONEWEB-0719             
1 55179U 23004AR  25340.91989576  .00000062  00000+0  12603-3 0  9996
2 55179  87.9126  44.0566 0001993 103.7115 256.4239 13.17649227142265
ONEWEB-0530             
1 55796U 23029A   25340.89546358  .00000109  00000+0  23718-3 0  9993
2 55796  87.9194 312.8326 0001605  99.6153 260.5162 13.20774610135767
ONEWEB-0534             
1 55797U 23029B   25340.95859832  .00000062  00000+0  12103-3 0  9999
2 55797  87.9191 312.8207 0001961  85.1112 275.0245 13.20774299135770
ONEWEB-0556             
1 55798U 23029C   25340.96492630  .00000048  00000+0  85741-4 0  9993
2 55798  87.9193 312.8192 0002618  99.8626 260.2803 13.20771782135778
ONEWEB-0562             
1 55799U 23029D   25340.95230112  .00000052  00000+0  97104-4 0  9999
2 55799  87.9187 312.8048 0001875 112.4217 247.7115 13.20771396135771
ONEWEB-0563             
1 55800U 23029E   25340.94597455  .00000076  00000+0  15471-3 0  9999
2 55800  87.9187 312.8324 0002089  83.3662 276.7709 13.20773706135766
